IRIDIUM 26              
1 24903U 97043A   25350.66723970  .00000385  00000+0  12236-3 0  9998
2 24903  86.3957  33.9121 0002161  98.9986 261.1457 14.37330725482955
IRIDIUM 22              
1 24907U 97043E   25350.60952216  .00000322  00000+0  10372-3 0  9993
2 24907  86.3962  37.6329 0002303  95.4432 264.7028 14.36124322482958
DUMMY MASS 1            
1 24925U 97048A   25350.70827421  .00000382  00000+0  39370-4 0  9994
2 24925  86.3344  50.8702 0005450 199.2394 160.8626 14.87186441532255
DUMMY MASS 2            
1 24926U 97048B   25350.70091235  .00000380  00000+0  39395-4 0  9996
2 24926  86.3344  52.5152 0005742 215.8929 144.1911 14.86936867532028
IRIDIUM 29              
1 24944U 97051A   25350.77513525  .00000362  00000+0  11640-3 0  9990
2 24944  86.3953  67.2493 0002270  91.8121 268.3336 14.36666195479483
IRIDIUM 33              
1 24946U 97051C   25350.75076499  .00000311  00000+0  10230-3 0  9992
2 24946  86.3869  66.5381 0007509 186.4465 173.6635 14.35040316478929
IRIDIUM 28              
1 24948U 97051E   25350.77282785  .00000363  00000+0  11448-3 0  9992
2 24948  86.3958  64.6615 0002057 109.9057 250.2362 14.37566118480072
IRIDIUM 36              
1 24967U 97056C   25350.84689796  .00000394  00000+0  12432-3 0  9997
2 24967  86.3962  96.2578 0002202 101.4703 258.6742 14.37787872478460
